start=new Date('2022-03-06T00:00:00.000Z').valueOf();
sats=[{"OBJECT_NAME":"STARLINK-2435","RCS_SIZE":"LARGE","MEAN_MOTION_DOT":"0.00000670","PERIAPSIS":"545.923","MEAN_MOTION":"15.06403387","ARG_OF_PERICENTER":"48.5811","DECAY_DATE":null,"APOAPSIS":"548.483","GP_ID":"197980956","COUNTRY_CODE":"US","CLASSIFICATION_TYPE":"U","INCLINATION":"53.0559","MEAN_ANOMALY":"311.5336","RA_OF_ASC_NODE":"354.1538","TLE_LINE2":"2 47843  53.0559 354.1538 0001848  48.5811 311.5336 15.06403387 55708","EPHEMERIS_TYPE":"0","EPOCH":"2022-03-05T11:50:27.952512","MEAN_MOTION_DDOT":"0.0000000000000","LAUNCH_DATE":"2021-03-11","NORAD_CAT_ID":"47843","FILE":"3346052","REF_FRAME":"TEME","CENTER_NAME":"EARTH","TIME_SYSTEM":"UTC","BSTAR":"0.00006386100000","MEAN_ELEMENT_THEORY":"SGP4","REV_AT_EPOCH":"5570","OBJECT_ID":"2021-018BJ","ECCENTRICITY":"0.00018480","TLE_LINE1":"1 47843U 21018BJ  22064.49337908  .00000670  00000-0  63861-4 0  9996","ELEMENT_SET_NO":"999","PERIOD":"95.592","OBJECT_TYPE":"PAYLOAD","SITE":"AFETR","SEMIMAJOR_AXIS":"6925.338"},{"MEAN_MOTION":"15.06415060","ARG_OF_PERICENTER":"64.6039","DECAY_DATE":null,"GP_ID":"198017900","APOAPSIS":"548.314","COUNTRY_CODE":"US","CLASSIFICATION_TYPE":"U","MEAN_MOTION_DOT":"0.00011381","RCS_SIZE":"LARGE","OBJECT_NAME":"STARLINK-2446","PERIAPSIS":"546.021","MEAN_MOTION_DDOT":"0.0000000000000","NORAD_CAT_ID":"47844","LAUNCH_DATE":"2021-03-11","REF_FRAME":"TEME","FILE":"3346512","INCLINATION":"53.0560","MEAN_ANOMALY":"295.5121","EPHEMERIS_TYPE":"0","TLE_LINE2":"2 47844  53.0560 347.6627 0001655  64.6039 295.5121 15.06415060 55809","RA_OF_ASC_NODE":"347.6627","EPOCH":"2022-03-05T19:46:11.169696","ECCENTRICITY":"0.00016550","OBJECT_ID":"2021-018BK","CENTER_NAME":"EARTH","TIME_SYSTEM":"UTC","BSTAR":"0.00078138000000","REV_AT_EPOCH":"5580","MEAN_ELEMENT_THEORY":"SGP4","PERIOD":"95.591","OBJECT_TYPE":"PAYLOAD","SITE":"AFETR","SEMIMAJOR_AXIS":"6925.302","TLE_LINE1":"1 47844U 21018BK  22064.82374039  .00011381  00000-0  78138-3 0  9993","ELEMENT_SET_NO":"999"},{"PERIOD":"95.591","OBJECT_TYPE":"PAYLOAD","SITE":"AFETR","SEMIMAJOR_AXIS":"6925.307","TLE_LINE1":"1 47845U 21018BL  22064.77581101  .00004049  00000-0  29049-3 0  9998","ELEMENT_SET_NO":"999","ECCENTRICITY":"0.00017200","OBJECT_ID":"2021-018BL","CENTER_NAME":"EARTH","TIME_SYSTEM":"UTC","MEAN_ELEMENT_THEORY":"SGP4","BSTAR":"0.00029049000000","REV_AT_EPOCH":"5580","MEAN_MOTION_DDOT":"0.0000000000000","NORAD_CAT_ID":"47845","LAUNCH_DATE":"2021-03-11","FILE":"3346512","REF_FRAME":"TEME","MEAN_ANOMALY":"304.0857","INCLINATION":"53.0559","TLE_LINE2":"2 47845  53.0559 347.8807 0001720  56.0295 304.0857 15.06413676 55805","EPHEMERIS_TYPE":"0","RA_OF_ASC_NODE":"347.8807","EPOCH":"2022-03-05T18:37:10.071264","ARG_OF_PERICENTER":"56.0295","MEAN_MOTION":"15.06413676","DECAY_DATE":null,"COUNTRY_CODE":"US","GP_ID":"198018651","APOAPSIS":"548.363","CLASSIFICATION_TYPE":"U","RCS_SIZE":"LARGE","OBJECT_NAME":"STARLINK-2453","MEAN_MOTION_DOT":"0.00004049","PERIAPSIS":"545.980"},{"RCS_SIZE":"LARGE","MEAN_MOTION_DOT":"0.00002284","OBJECT_NAME":"STARLINK-2456","PERIAPSIS":"545.914","DECAY_DATE":null,"ARG_OF_PERICENTER":"62.2773","MEAN_MOTION":"15.06398597","CLASSIFICATION_TYPE":"U","GP_ID":"197948871","COUNTRY_CODE":"US","APOAPSIS":"548.522","INCLINATION":"53.0559","MEAN_ANOMALY":"297.8406","EPOCH":"2022-03-05T04:12:01.454112","TLE_LINE2":"2 47846  53.0559 350.5765 0001883  62.2773 297.8406 15.06398597 55375","EPHEMERIS_TYPE":"0","RA_OF_ASC_NODE":"350.5765","MEAN_MOTION_DDOT":"0.0000000000000","REF_FRAME":"TEME","FILE":"3345578","LAUNCH_DATE":"2021-03-11","NORAD_CAT_ID":"47846","REV_AT_EPOCH":"5537","BSTAR":"0.00017220000000","MEAN_ELEMENT_THEORY":"SGP4","TIME_SYSTEM":"UTC","CENTER_NAME":"EARTH","OBJECT_ID":"2021-018BM","ECCENTRICITY":"0.00018830","TLE_LINE1":"1 47846U 21018BM  22064.17501683  .00002284  00000-0  17220-3 0  9997","ELEMENT_SET_NO":"999","OBJECT_TYPE":"PAYLOAD","PERIOD":"95.592","SEMIMAJOR_AXIS":"6925.353","SITE":"AFETR"},{"NORAD_CAT_ID":"47860","LAUNCH_DATE":"2021-03-14","REF_FRAME":"TEME","FILE":"3346512","MEAN_MOTION_DDOT":"0.0000000000000","EPHEMERIS_TYPE":"0","TLE_LINE2":"2 47860  53.0537  17.5831 0001888  58.1756 301.9417 15.06412835 55169","RA_OF_ASC_NODE":"17.5831","EPOCH":"2022-03-05T20:14:02.612256","MEAN_ANOMALY":"301.9417","INCLINATION":"53.0537","GP_ID":"198017402","APOAPSIS":"548.482","COUNTRY_CODE":"US","CLASSIFICATION_TYPE":"U","MEAN_MOTION":"15.06412835","ARG_OF_PERICENTER":"58.1756","DECAY_DATE":null,"PERIAPSIS":"545.867","MEAN_MOTION_DOT":"0.00004851","RCS_SIZE":"LARGE","OBJECT_NAME":"STARLINK-2258","SEMIMAJOR_AXIS":"6925.309","SITE":"AFETR","PERIOD":"95.591","OBJECT_TYPE":"PAYLOAD","ELEMENT_SET_NO":"999","TLE_LINE1":"1 47860U 21021A   22064.84308579  .00004851  00000-0  34423-3 0  9996","OBJECT_ID":"2021-021A","ECCENTRICITY":"0.00018880","TIME_SYSTEM":"UTC","CENTER_NAME":"EARTH","MEAN_ELEMENT_THEORY":"SGP4","BSTAR":"0.00034423000000","REV_AT_EPOCH":"5516"},{"SEMIMAJOR_AXIS":"6925.329","SITE":"AFETR","OBJECT_TYPE":"PAYLOAD","PERIOD":"95.592","ELEMENT_SET_NO":"999","TLE_LINE1":"1 47861U 21021B   22064.59566843  .00000914  00000-0  80224-4 0  9996","OBJECT_ID":"2021-021B","ECCENTRICITY":"0.00014860","MEAN_ELEMENT_THEORY":"SGP4","BSTAR":"0.00008022400000","REV_AT_EPOCH":"5544","TIME_SYSTEM":"UTC","CENTER_NAME":"EARTH","FILE":"3346512","REF_FRAME":"TEME","NORAD_CAT_ID":"47861","LAUNCH_DATE":"2021-03-14","MEAN_MOTION_DDOT":"0.0000000000000","EPOCH":"2022-03-05T14:17:45.752352","EPHEMERIS_TYPE":"0","TLE_LINE2":"2 47861  53.0546   3.6944 0001486  72.2353 287.8798 15.06406261 55446","RA_OF_ASC_NODE":"3.6944","INCLINATION":"53.0546","MEAN_ANOMALY":"287.8798","CLASSIFICATION_TYPE":"U","GP_ID":"198018153","APOAPSIS":"548.223","COUNTRY_CODE":"US","DECAY_DATE":null,"MEAN_MOTION":"15.06406261","ARG_OF_PERICENTER":"72.2353","PERIAPSIS":"546.165","RCS_SIZE":"LARGE","OBJECT_NAME":"STARLINK-2280","MEAN_MOTION_DOT":"0.00000914"},{"MEAN_MOTION":"15.06409722","ARG_OF_PERICENTER":"66.1199","DECAY_DATE":null,"APOAPSIS":"548.236","GP_ID":"198018404","COUNTRY_CODE":"US","CLASSIFICATION_TYPE":"U","RCS_SIZE":"LARGE","OBJECT_NAME":"STARLINK-2291","MEAN_MOTION_DOT":"0.00001367","PERIAPSIS":"546.132","MEAN_MOTION_DDOT":"0.0000000000000","NORAD_CAT_ID":"47862","LAUNCH_DATE":"2021-03-14","REF_FRAME":"TEME","FILE":"3346512","INCLINATION":"53.0561","MEAN_ANOMALY":"293.9949","TLE_LINE2":"2 47862  53.0561 357.5894 0001519  66.1199 293.9949 15.06409722 55548","RA_OF_ASC_NODE":"357.5894","EPHEMERIS_TYPE":"0","EPOCH":"2022-03-05T20:11:23.729568","ECCENTRICITY":"0.00015190","OBJECT_ID":"2021-021C","TIME_SYSTEM":"UTC","CENTER_NAME":"EARTH","MEAN_ELEMENT_THEORY":"SGP4","BSTAR":"0.00011063000000","REV_AT_EPOCH":"5554","PERIOD":"95.592","OBJECT_TYPE":"PAYLOAD","SEMIMAJOR_AXIS":"6925.319","SITE":"AFETR","TLE_LINE1":"1 47862U 21021C   22064.84124687  .00001367  00000-0  11063-3 0  9998","ELEMENT_SET_NO":"999"},{"OBJECT_NAME":"STARLINK-2293","RCS_SIZE":"LARGE","MEAN_MOTION_DOT":"0.00002516","PERIAPSIS":"545.944","DECAY_DATE":null,"MEAN_MOTION":"15.06410619","ARG_OF_PERICENTER":"59.1047","CLASSIFICATION_TYPE":"U","GP_ID":"198017652","APOAPSIS":"548.418","COUNTRY_CODE":"US","INCLINATION":"53.0569","MEAN_ANOMALY":"301.0117","EPOCH":"2022-03-05T19:11:39.796224","TLE_LINE2":"2 47863  53.0569   7.7712 0001786  59.1047 301.0117 15.06410619 55400","RA_OF_ASC_NODE":"7.7712","EPHEMERIS_TYPE":"0","MEAN_MOTION_DDOT":"0.0000000000000","FILE":"3346512","REF_FRAME":"TEME","LAUNCH_DATE":"2021-03-14","NORAD_CAT_ID":"47863","BSTAR":"0.00018771000000","MEAN_ELEMENT_THEORY":"SGP4","REV_AT_EPOCH":"5540","CENTER_NAME":"EARTH","TIME_SYSTEM":"UTC","ECCENTRICITY":"0.00017860","OBJECT_ID":"2021-021D","TLE_LINE1":"1 47863U 21021D   22064.79976616  .00002516  00000-0  18771-3 0  9990","ELEMENT_SET_NO":"999","OBJECT_TYPE":"PAYLOAD","PERIOD":"95.591","SITE":"AFETR","SEMIMAJOR_AXIS":"6925.316"},{"ECCENTRICITY":"0.00015810","OBJECT_ID":"2021-021E","REV_AT_EPOCH":"5552","BSTAR":"0.00030373000000","MEAN_ELEMENT_THEORY":"SGP4","TIME_SYSTEM":"UTC","CENTER_NAME":"EARTH","SEMIMAJOR_AXIS":"6925.299","SITE":"AFETR","OBJECT_TYPE":"PAYLOAD","PERIOD":"95.591","ELEMENT_SET_NO":"999","TLE_LINE1":"1 47864U 21021E   22064.84029971  .00004247  00000-0  30373-3 0  9995","CLASSIFICATION_TYPE":"U","APOAPSIS":"548.258","GP_ID":"198017902","COUNTRY_CODE":"US","DECAY_DATE":null,"MEAN_MOTION":"15.06416317","ARG_OF_PERICENTER":"59.6886","PERIAPSIS":"546.069","RCS_SIZE":"LARGE","MEAN_MOTION_DOT":"0.00004247","OBJECT_NAME":"STARLINK-2304","FILE":"3346512","REF_FRAME":"TEME","NORAD_CAT_ID":"47864","LAUNCH_DATE":"2021-03-14","MEAN_MOTION_DDOT":"0.0000000000000","EPOCH":"2022-03-05T20:10:01.894944","TLE_LINE2":"2 47864  53.0551 357.5964 0001581  59.6886 300.4259 15.06416317 55520","EPHEMERIS_TYPE":"0","RA_OF_ASC_NODE":"357.5964","INCLINATION":"53.0551","MEAN_ANOMALY":"300.4259"},{"BSTAR":"0.00018552000000","REV_AT_EPOCH":"5547","MEAN_ELEMENT_THEORY":"SGP4","CENTER_NAME":"EARTH","TIME_SYSTEM":"UTC","ECCENTRICITY":"0.00017700","OBJECT_ID":"2021-021F","ELEMENT_SET_NO":"999","TLE_LINE1":"1 47865U 21021F   22064.57493066  .00002483  00000-0  18552-3 0  9991","SITE":"AFETR","SEMIMAJOR_AXIS":"6925.321","OBJECT_TYPE":"PAYLOAD","PERIOD":"95.592","PERIAPSIS":"545.960","RCS_SIZE":"LARGE","OBJECT_NAME":"STARLINK-2310","MEAN_MOTION_DOT":"0.00002483","CLASSIFICATION_TYPE":"U","APOAPSIS":"548.412","GP_ID":"198018653","COUNTRY_CODE":"US","DECAY_DATE":null,"MEAN_MOTION":"15.06408943","ARG_OF_PERICENTER":"68.1335","EPOCH":"2022-03-05T13:47:54.009024","RA_OF_ASC_NODE":"8.7617","TLE_LINE2":"2 47865  53.0567   8.7617 0001770  68.1335 291.9842 15.06408943 55474","EPHEMERIS_TYPE":"0","MEAN_ANOMALY":"291.9842","INCLINATION":"53.0567","FILE":"3346512","REF_FRAME":"TEME","NORAD_CAT_ID":"47865","LAUNCH_DATE":"2021-03-14","MEAN_MOTION_DDOT":"0.0000000000000"}];
